{"type": "FeatureCollection", "features": [ {"type": "Feature", "properties": {"norad_id": 67051, "name": "STARLINK-35706", "group": "last-30-days", "lat": 39.99987338670132, "lon": -122.61408327519462, "alt_km": 319.6660280213946, "timestamp": "2025-12-22T14:45:56.100419+00:00", "meta": {"OBJECT_NAME": "STARLINK-35706", "OBJECT_ID": "2025-294X", "EPOCH": "2025-12-22T06:00:02.000160", "MEAN_MOTION": 15.83540312, "ECCENTRICITY": 0.00013988, "INCLINATION": 43.0003, "RA_OF_ASC_NODE": 123.8477, "ARG_OF_PERICENTER": 266.5871, "MEAN_ANOMALY": 279.3517, "EPHEMERIS_TYPE": 0, "CLASSIFICATION_TYPE": "U", "NORAD_CAT_ID": 67051, "ELEMENT_SET_NO": 999, "REV_AT_EPOCH": 183, "BSTAR": -0.0097143119, "MEAN_MOTION_DOT": -0.01918257, "MEAN_MOTION_DDOT": 0}, "tle": {"line1": "1 67051U 25294X   25356.25002315 -.01918257  00000+0 -97143-2 0  9990", "line2": "2 67051  43.0003 123.8477 0001398 266.5871 279.3517 15.83540312  1837"}}, "geometry": {"type": "Point", "coordinates": [-122.61408327519462, 39.99987338670132]}}, {"type": "Feature", "properties": {"norad_id": 67052, "name": "STARLINK-35720", "group": "last-30-days", "lat": 39.378690806974674, "lon": -120.14027809800774, "alt_km": 319.6436980143317, "timestamp": "2025-12-22T14:45:56.100430+00:00", "meta": {"OBJECT_NAME": "STARLINK-35720", "OBJECT_ID": "2025-294Y", "EPOCH": "2025-12-22T06:00:02.000160", "MEAN_MOTION": 15.83536912, "ECCENTRICITY": 0.00011973, "INCLINATION": 43.0004, "RA_OF_ASC_NODE": 123.8428, "ARG_OF_PERICENTER": 268.6367, "MEAN_ANOMALY": 279.3079, "EPHEMERIS_TYPE": 0, "CLASSIFICATION_TYPE": "U", "NORAD_CAT_ID": 67052, "ELEMENT_SET_NO": 999, "REV_AT_EPOCH": 182, "BSTAR": -0.0097079358, "MEAN_MOTION_DOT": -0.01916688, "MEAN_MOTION_DDOT": 0}, "tle": {"line1": "1 67052U 25294Y   25356.25002315 -.01916688  00000+0 -97079-2 0  9995", "line2": "2 67052  43.0004 123.8428 0001197 268.6367 279.3079 15.83536912  1828"}}, "geometry": {"type": "Point", "coordinates": [-120.14027809800774, 39.378690806974674]}}, {"type": "Feature", "properties": {"norad_id": 67053, "name": "STARLINK-35739", "group": "last-30-days", "lat": 38.62112893829296, "lon": -117.42206999798627, "alt_km": 319.8385257949476, "timestamp": "2025-12-22T14:45:56.100442+00:00", "meta": {"OBJECT_NAME": "STARLINK-35739", "OBJECT_ID": "2025-294Z", "EPOCH": "2025-12-22T06:00:02.000160", "MEAN_MOTION": 15.83525931, "ECCENTRICITY": 0.00013099, "INCLINATION": 43.0005, "RA_OF_ASC_NODE": 123.8368, "ARG_OF_PERICENTER": 267.1459, "MEAN_ANOMALY": 283.0607, "EPHEMERIS_TYPE": 0, "CLASSIFICATION_TYPE": "U", "NORAD_CAT_ID": 67053, "ELEMENT_SET_NO": 999, "REV_AT_EPOCH": 148, "BSTAR": -0.0097154766, "MEAN_MOTION_DOT": -0.01917213, "MEAN_MOTION_DDOT": 0}, "tle": {"line1": "1 67053U 25294Z   25356.25002315 -.01917213  00000+0 -97155-2 0  9996", "line2": "2 67053  43.0005 123.8368 0001309 267.1459 283.0607 15.83525931  1484"}}, "geometry": {"type": "Point", "coordinates": [-117.42206999798627, 38.62112893829296]}}, {"type": "Feature", "properties": {"norad_id": 67054, "name": "STARLINK-35754", "group": "last-30-days", "lat": 37.7229173836907, "lon": -114.52050480458253, "alt_km": 320.055324781486, "timestamp": "2025-12-22T14:45:56.100452+00:00", "meta": {"OBJECT_NAME": "STARLINK-35754", "OBJECT_ID": "2025-294AA", "EPOCH": "2025-12-22T06:00:02.000160", "MEAN_MOTION": 15.83501354, "ECCENTRICITY": 0.00012916, "INCLINATION": 43.0003, "RA_OF_ASC_NODE": 123.8307, "ARG_OF_PERICENTER": 271.3577, "MEAN_ANOMALY": 281.3325, "EPHEMERIS_TYPE": 0, "CLASSIFICATION_TYPE": "U", "NORAD_CAT_ID": 67054, "ELEMENT_SET_NO": 999, "REV_AT_EPOCH": 164, "BSTAR": -0.0097221754, "MEAN_MOTION_DOT": -0.01916372, "MEAN_MOTION_DDOT": 0}, "tle": {"line1": "1 67054U 25294AA  25356.25002315 -.01916372  00000+0 -97222-2 0  9997", "line2": "2 67054  43.0003 123.8307 0001291 271.3577 281.3325 15.83501354  1643"}}, "geometry": {"type": "Point", "coordinates": [-114.52050480458253, 37.7229173836907]}}, {"type": "Feature", "properties": {"norad_id": 67055, "name": "STARLINK-35790", "group": "last-30-days", "lat": 36.79384697901561, "lon": -111.80031255613929, "alt_km": 320.2178310510162, "timestamp": "2025-12-22T14:45:56.100462+00:00", "meta": {"OBJECT_NAME": "STARLINK-35790", "OBJECT_ID": "2025-294AB", "EPOCH": "2025-12-22T06:00:02.000160", "MEAN_MOTION": 15.83490721, "ECCENTRICITY": 0.00013485, "INCLINATION": 43.0001, "RA_OF_ASC_NODE": 123.8242, "ARG_OF_PERICENTER": 266.662, "MEAN_ANOMALY": 288.4058, "EPHEMERIS_TYPE": 0, "CLASSIFICATION_TYPE": "U", "NORAD_CAT_ID": 67055, "ELEMENT_SET_NO": 999, "REV_AT_EPOCH": 183, "BSTAR": -0.0097588196, "MEAN_MOTION_DOT": -0.0192185, "MEAN_MOTION_DDOT": 0}, "tle": {"line1": "1 67055U 25294AB  25356.25002315 -.01921850  00000+0 -97588-2 0  9990", "line2": "2 67055  43.0001 123.8242 0001348 266.6620 288.4058 15.83490721  1836"}}, "geometry": {"type": "Point", "coordinates": [-111.80031255613929, 36.79384697901561]}}, {"type": "Feature", "properties": {"norad_id": 67056, "name": "STARLINK-36143", "group": "last-30-days", "lat": 34.06933049435849, "lon": -104.9636657249221, "alt_km": 320.63524240069273, "timestamp": "2025-12-22T14:45:56.100474+00:00", "meta": {"OBJECT_NAME": "STARLINK-36143", "OBJECT_ID": "2025-294AC", "EPOCH": "2025-12-22T06:00:02.000160", "MEAN_MOTION": 15.83469996, "ECCENTRICITY": 0.00012247, "INCLINATION": 43.0001, "RA_OF_ASC_NODE": 123.8083, "ARG_OF_PERICENTER": 272.6781, "MEAN_ANOMALY": 288.6156, "EPHEMERIS_TYPE": 0, "CLASSIFICATION_TYPE": "U", "NORAD_CAT_ID": 67056, "ELEMENT_SET_NO": 999, "REV_AT_EPOCH": 183, "BSTAR": -0.0097382037, "MEAN_MOTION_DOT": -0.01916536, "MEAN_MOTION_DDOT": 0}, "tle": {"line1": "1 67056U 25294AC  25356.25002315 -.01916536  00000+0 -97382-2 0  9998", "line2": "2 67056  43.0001 123.8083 0001224 272.6781 288.6156 15.83469996  1839"}}, "geometry": {"type": "Point", "coordinates": [-104.9636657249221, 34.06933049435849]}}, {"type": "Feature", "properties": {"norad_id": 67057, "name": "STARLINK-36141", "group": "last-30-days", "lat": 35.05585367441435, "lon": -107.27781875991607, "alt_km": 320.4262902329192, "timestamp": "2025-12-22T14:45:56.100485+00:00", "meta": {"OBJECT_NAME": "STARLINK-36141", "OBJECT_ID": "2025-294AD", "EPOCH": "2025-12-22T06:00:02.000160", "MEAN_MOTION": 15.83479589, "ECCENTRICITY": 0.00012332, "INCLINATION": 42.9999, "RA_OF_ASC_NODE": 123.8141, "ARG_OF_PERICENTER": 267.9756, "MEAN_ANOMALY": 291.1599, "EPHEMERIS_TYPE": 0, "CLASSIFICATION_TYPE": "U", "NORAD_CAT_ID": 67057, "ELEMENT_SET_NO": 999, "REV_AT_EPOCH": 175, "BSTAR": -0.0097418419, "MEAN_MOTION_DOT": -0.01917936, "MEAN_MOTION_DDOT": 0}, "tle": {"line1": "1 67057U 25294AD  25356.25002315 -.01917936  00000+0 -97418-2 0  9994", "line2": "2 67057  42.9999 123.8141 0001233 267.9756 291.1599 15.83479589  1758"}}, "geometry": {"type": "Point", "coordinates": [-107.27781875991607, 35.05585367441435]}}, {"type": "Feature", "properties": {"norad_id": 67058, "name": "STARLINK-35767", "group": "last-30-days", "lat": 35.92694825689089, "lon": -109.46362218616596, "alt_km": 320.29080184926715, "timestamp": "2025-12-22T14:45:56.100497+00:00", "meta": {"OBJECT_NAME": "STARLINK-35767", "OBJECT_ID": "2025-294AE", "EPOCH": "2025-12-22T06:00:02.000160", "MEAN_MOTION": 15.83482257, "ECCENTRICITY": 0.00012171, "INCLINATION": 43.0003, "RA_OF_ASC_NODE": 123.8189, "ARG_OF_PERICENTER": 268.9983, "MEAN_ANOMALY": 288.1485, "EPHEMERIS_TYPE": 0, "CLASSIFICATION_TYPE": "U", "NORAD_CAT_ID": 67058, "ELEMENT_SET_NO": 999, "REV_AT_EPOCH": 164, "BSTAR": -0.0097230048, "MEAN_MOTION_DOT": -0.0191491, "MEAN_MOTION_DDOT": 0}, "tle": {"line1": "1 67058U 25294AE  25356.25002315 -.01914910  00000+0 -97230-2 0  9996", "line2": "2 67058  43.0003 123.8189 0001217 268.9983 288.1485 15.83482257  1648"}}, "geometry": {"type": "Point", "coordinates": [-109.46362218616596, 35.92694825689089]}}, {"type": "Feature", "properties": {"norad_id": 67059, "name": "HULIANWANG DIGUI-119", "group": "last-30-days", "lat": 34.53711342407565, "lon": 115.28318626468177, "alt_km": 813.7272615414422, "timestamp": "2025-12-22T14:45:56.100507+00:00", "meta": {"OBJECT_NAME": "HULIANWANG DIGUI-119", "OBJECT_ID": "2025-295A", "EPOCH": "2025-12-22T05:43:44.691744", "MEAN_MOTION": 14.24613459, "ECCENTRICITY": 0.00139865, "INCLINATION": 50.0069, "RA_OF_ASC_NODE": 332.1614, "ARG_OF_PERICENTER": 280.0332, "MEAN_ANOMALY": 79.9003, "EPHEMERIS_TYPE": 0, "CLASSIFICATION_TYPE": "U", "NORAD_CAT_ID": 67059, "ELEMENT_SET_NO": 999, "REV_AT_EPOCH": 147, "BSTAR": -2.4864632e-05, "MEAN_MOTION_DOT": -2.18e-06, "MEAN_MOTION_DDOT": 0}, "tle": {"line1": "1 67059U 25295A   25356.23871171 -.00000218  00000+0 -24865-4 0  9992", "line2": "2 67059  50.0069 332.1614 0013986 280.0332  79.9003 14.24613459  1473"}}, "geometry": {"type": "Point", "coordinates": [115.28318626468177, 34.53711342407565]}}, {"type": "Feature", "properties": {"norad_id": 67060, "name": "HULIANWANG DIGUI-120", "group": "last-30-days", "lat": 22.64999222045543, "lon": 130.0367653033397, "alt_km": 809.7013936677122, "timestamp": "2025-12-22T14:45:56.100519+00:00", "meta": {"OBJECT_NAME": "HULIANWANG DIGUI-120", "OBJECT_ID": "2025-295B", "EPOCH": "2025-12-22T05:39:14.251968", "MEAN_MOTION": 14.25710082, "ECCENTRICITY": 0.00131929, "INCLINATION": 50.0058, "RA_OF_ASC_NODE": 332.1457, "ARG_OF_PERICENTER": 280.9307, "MEAN_ANOMALY": 79.0123, "EPHEMERIS_TYPE": 0, "CLASSIFICATION_TYPE": "U", "NORAD_CAT_ID": 67060, "ELEMENT_SET_NO": 999, "REV_AT_EPOCH": 147, "BSTAR": -2.8527047e-05, "MEAN_MOTION_DOT": -2.28e-06, "MEAN_MOTION_DDOT": 0}, "tle": {"line1": "1 67060U 25295B   25356.23558162 -.00000228  00000+0 -28527-4 0  9996", "line2": "2 67060  50.0058 332.1457 0013192 280.9307  79.0123 14.25710082  1473"}}, "geometry": {"type": "Point", "coordinates": [130.0367653033397, 22.64999222045543]}}]}